$$SOE
2460721.500000000, A.D. 2025-Feb-15 00:00:00.0000, 1.478126921862144E+08, 2.830215231688906E+08, -7.345178586098316E+07,
2460728.500000000, A.D. 2025-Feb-22 00:00:00.0000, 1.365274667523064E+08, 2.896446955717247E+08, -7.617941595145878E+07,
2460735.500000000, A.D. 2025-Mar-01 00:00:00.0000, 1.250563545885475E+08, 2.958737528409903E+08, -7.880333194321939E+07,
2460742.500000000, A.D. 2025-Mar-08 00:00:00.0000, 1.134174234974835E+08, 3.017060196414848E+08, -8.132150511898041E+07,
2460749.500000000, A.D. 2025-Mar-15 00:00:00.0000, 1.016285834012090E+08, 3.071397730837361E+08, -8.373219850433329E+07,
2460756.500000000, A.D. 2025-Mar-22 00:00:00.0000, 8.970752042779607E+07, 3.121742043358101E+08, -8.603395954631644E+07,
2460763.500000000, A.D. 2025-Mar-29 00:00:00.0000, 7.767163808241272E+07, 3.168093742421246E+08, -8.822561160316874E+07,
2460770.500000000, A.D. 2025-Apr-05 00:00:00.0000, 6.553800598305228E+07, 3.210461668475392E+08, -9.030624423533034E+07,
2460777.500000000, A.D. 2025-Apr-12 00:00:00.0000, 5.332331428269152E+07, 3.248862416533112E+08, -9.227520232237130E+07,
2460784.500000000, A.D. 2025-Apr-19 00:00:00.0000, 4.104383354370175E+07, 3.283319844092851E+08, -9.413207426514867E+07,
2460791.500000000, A.D. 2025-Apr-26 00:00:00.0000, 2.871538021016653E+07, 3.313864568784291E+08, -9.587667951151624E+07,
2460798.500000000, A.D. 2025-May-03 00:00:00.0000, 1.635328759841977E+07, 3.340533461770076E+08, -9.750905559990555E+07,
2460805.500000000, A.D. 2025-May-10 00:00:00.0000, 3.972382185257491E+06, 3.363369142235985E+08, -9.902944489442748E+07,
2460812.500000000, A.D. 2025-May-17 00:00:00.0000, -8.413035062778756E+06, 3.382419477187372E+08, -1.004382811747467E+08,
2460819.500000000, A.D. 2025-May-24 00:00:00.0000, -2.078920247175686E+07, 3.397737090014950E+08, -1.017361762416082E+08,
2460826.500000000, A.D. 2025-May-31 00:00:00.0000, -3.314290648661495E+07, 3.409378884344188E+08, -1.029239066753731E+08,
2460833.500000000, A.D. 2025-Jun-07 00:00:00.0000, -4.546148630559909E+07, 3.417405598053603E+08, -1.040024007218674E+08,
2460840.500000000, A.D. 2025-Jun-14 00:00:00.0000, -5.773283705254012E+07, 3.421881383062260E+08, -1.049727252361031E+08,
2460847.500000000, A.D. 2025-Jun-21 00:00:00.0000, -6.994541063604064E+07, 3.422873379861867E+08, -1.058360731355883E+08,
2460854.500000000, A.D. 2025-Jun-28 00:00:00.0000, -8.208821153302293E+07, 3.420451305721636E+08, -1.065937515682825E+08,
2460861.500000000, A.D. 2025-Jul-05 00:00:00.0000, -9.415078936133473E+07, 3.414687079042426E+08, -1.072471705330232E+08,
2460868.500000000, A.D. 2025-Jul-12 00:00:00.0000, -1.061232297621169E+08, 3.405654472290037E+08, -1.077978319462581E+08,
2460875.500000000, A.D. 2025-Jul-19 00:00:00.0000, -1.179961437161708E+08, 3.393428787902110E+08, -1.082473192448899E+08,
2460882.500000000, A.D. 2025-Jul-26 00:00:00.0000, -1.297606553785144E+08, 3.378086556479697E+08, -1.085972875656743E+08,
2460889.500000000, A.D. 2025-Aug-02 00:00:00.0000, -1.414083886380665E+08, 3.359705257125911E+08, -1.088494545138246E+08,
2460896.500000000, A.D. 2025-Aug-09 00:00:00.0000, -1.529314526289921E+08, 3.338363059237386E+08, -1.090055915253136E+08,
2460903.500000000, A.D. 2025-Aug-16 00:00:00.0000, -1.643224263443289E+08, 3.314138584410911E+08, -1.090675158299937E+08,
2460910.500000000, A.D. 2025-Aug-23 00:00:00.0000, -1.755743422648901E+08, 3.287110687800525E+08, -1.090370830307082E+08,
2460917.500000000, A.D. 2025-Aug-30 00:00:00.0000, -1.866806688592592E+08, 3.257358265144618E+08, -1.089161802559263E+08,
2460924.500000000, A.D. 2025-Sep-06 00:00:00.0000, -1.976352935376557E+08, 3.224960094494432E+08, -1.087067196575515E+08,
2460931.500000000, A.D. 2025-Sep-13 00:00:00.0000, -2.084325078724364E+08, 3.189994686809839E+08, -1.084106322840797E+08,
2460938.500000000, A.D. 2025-Sep-20 00:00:00.0000, -2.190669919333172E+08, 3.152540127899846E+08, -1.080298627382525E+08,
2460945.500000000, A.D. 2025-Sep-27 00:00:00.0000, -2.295337967879579E+08, 3.112673941731607E+08, -1.075663644359928E+08,
2460952.500000000, A.D. 2025-Oct-04 00:00:00.0000, -2.398283272778576E+08, 3.070472979453304E+08, -1.070220952129770E+08,
2460959.500000000, A.D. 2025-Oct-11 00:00:00.0000, -2.499463255200928E+08, 3.026013323649977E+08, -1.063990132947029E+08,
2460966.500000000, A.D. 2025-Oct-18 00:00:00.0000, -2.598838549174919E+08, 2.979370204047593E+08, -1.056990736515555E+08,
2460973.500000000, A.D. 2025-Oct-25 00:00:00.0000, -2.696372845944186E+08, 2.930617923786625E+08, -1.049242247261311E+08,
2460980.500000000, A.D. 2025-Nov-01 00:00:00.0000, -2.792032742648506E+08, 2.879829795495253E+08, -1.040764055124254E+08,
2460987.500000000, A.D. 2025-Nov-08 00:00:00.0000, -2.885787595335216E+08, 2.827078085978943E+08, -1.031575429704770E+08,
2460994.500000000, A.D. 2025-Nov-15 00:00:00.0000, -2.977609375079136E+08, 2.772433968114607E+08, -1.021695497725049E+08,
2461001.500000000, A.D. 2025-Nov-22 00:00:00.0000, -3.067472523362297E+08, 2.715967481360098E+08, -1.011143223771004E+08,
2461008.500000000, A.D. 2025-Nov-29 00:00:00.0000, -3.155353808366602E+08, 2.657747511476632E+08, -9.999373930295545E+07,
2461015.500000000, A.D. 2025-Dec-06 00:00:00.0000, -3.241232205034072E+08, 2.597841787405400E+08, -9.880965938445136E+07,
2461022.500000000, A.D. 2025-Dec-13 00:00:00.0000, -3.325088794578590E+08, 2.536316860956406E+08, -9.756392030539492E+07,
2461029.500000000, A.D. 2025-Dec-20 00:00:00.0000, -3.406906648474426E+08, 2.473238078920816E+08, -9.625833762775245E+07,
2461036.500000000, A.D. 2025-Dec-27 00:00:00.0000, -3.486670707617108E+08, 2.408669572931089E+08, -9.489470398729147E+07,
2461043.500000000, A.D. 2026-Jan-03 00:00:00.0000, -3.564367671195268E+08, 2.342674260401481E+08, -9.347478835780072E+07,
2461050.500000000, A.D. 2026-Jan-10 00:00:00.0000, -3.639985894079688E+08, 2.275313849298304E+08, -9.200033543499187E+07,
2461057.500000000, A.D. 2026-Jan-17 00:00:00.0000, -3.713515290282259E+08, 2.206648845393221E+08, -9.047306515476508E+07,
2461064.500000000, A.D. 2026-Jan-24 00:00:00.0000, -3.784947241571497E+08, 2.136738561830306E+08, -8.889467233798917E+07,
2461071.500000000, A.D. 2026-Jan-31 00:00:00.0000, -3.854274510865501E+08, 2.065641130573591E+08, -8.726682645243128E+07,
2461078.500000000, A.D. 2026-Feb-07 00:00:00.0000, -3.921491159632189E+08, 1.993413514836243E+08, -8.559117149089234E+07,
2461085.500000000, A.D. 2026-Feb-14 00:00:00.0000, -3.986592466601792E+08, 1.920111522042125E+08, -8.386932597944924E+07,
2461092.500000000, A.D. 2026-Feb-21 00:00:00.0000, -4.049574843744536E+08, 1.845789822816955E+08, -8.210288309427997E+07,
2461099.500000000, A.D. 2026-Feb-28 00:00:00.0000, -4.110435760192577E+08, 1.770501987289251E+08, -8.029341068429787E+07,
2461106.500000000, A.D. 2026-Mar-07 00:00:00.0000, -4.169173694535809E+08, 1.694300518973037E+08, -7.844245116254972E+07,
2461113.500000000, A.D. 2026-Mar-14 00:00:00.0000, -4.225788087571789E+08, 1.617236862709005E+08, -7.655152170454426E+07,
2461120.500000000, A.D. 2026-Mar-21 00:00:00.0000, -4.280279277499605E+08, 1.539361415451830E+08, -7.462211467271790E+07,
2461127.500000000, A.D. 2026-Mar-28 00:00:00.0000, -4.332648437495738E+08, 1.460723550004245E+08, -7.265569799255770E+07,
2461134.500000000, A.D. 2026-Apr-04 00:00:00.0000, -4.382897521575945E+08, 1.381371641892868E+08, -7.065371549934949E+07,
2461141.500000000, A.D. 2026-Apr-11 00:00:00.0000, -4.431029215863909E+08, 1.301353095665345E+08, -6.861758730558425E+07,
2461148.500000000, A.D. 2026-Apr-18 00:00:00.0000, -4.477046893526844E+08, 1.220714370432003E+08, -6.654871019958279E+07,
2461155.500000000, A.D. 2026-Apr-25 00:00:00.0000, -4.520954572774134E+08, 1.139501004697980E+08, -6.444845807400297E+07,
2461162.500000000, A.D. 2026-May-02 00:00:00.0000, -4.562756877470858E+08, 1.057757640098822E+08, -6.231818238552093E+07,
2461169.500000000, A.D. 2026-May-09 00:00:00.0000, -4.602458998984280E+08, 9.755280432969508E+07, -6.015921265897584E+07,
2461176.500000000, A.D. 2026-May-16 00:00:00.0000, -4.640066655352657E+08, 8.928551273525064E+07, -5.797285705613977E+07,
2461183.500000000, A.D. 2026-May-23 00:00:00.0000, -4.675586047130982E+08, 8.097809827310570E+07, -5.576040292742312E+07,
2461190.500000000, A.D. 2026-May-30 00:00:00.0000, -4.709023830579731E+08, 7.263469210894027E+07, -5.352311712730229E+07,
2461197.500000000, A.D. 2026-Jun-06 00:00:00.0000, -4.740387111264070E+08, 6.425934990632654E+07, -5.126224632992858E+07,
2461204.500000000, A.D. 2026-Jun-13 00:00:00.0000, -4.769683421286623E+08, 5.585605240205586E+07, -4.897901766266519E+07,
2461211.500000000, A.D. 2026-Jun-20 00:00:00.0000, -4.796920685028749E+08, 4.742870710034521E+07, -4.667463936991413E+07,
2461218.500000000, A.D. 2026-Jun-27 00:00:00.0000, -4.822107190272769E+08, 3.898115074071716E+07, -4.435030137764557E+07,
2461225.500000000, A.D. 2026-Jul-04 00:00:00.0000, -4.845251564628364E+08, 3.051715176041292E+07, -4.200717582140923E+07,
2461232.500000000, A.D. 2026-Jul-11 00:00:00.0000, -4.866362754658162E+08, 2.204041261704462E+07, -3.964641757163215E+07,
2461239.500000000, A.D. 2026-Jul-18 00:00:00.0000, -4.885450006710150E+08, 1.355457199609612E+07, -3.726916476225221E+07,
2461246.500000000, A.D. 2026-Jul-25 00:00:00.0000, -4.902522849144873E+08, 5.063206905562095E+06, -3.487653932419315E+07,
2461253.500000000, A.D. 2026-Aug-01 00:00:00.0000, -4.917591075406224E+08, -3.430165390552012E+06, -3.246964753138088E+07,
2461260.500000000, A.D. 2026-Aug-08 00:00:00.0000, -4.930664725716096E+08, -1.192208563586936E+07, -3.004958058123723E+07,
2461267.500000000, A.D. 2026-Aug-15 00:00:00.0000, -4.941754063172351E+08, -2.040915059216962E+07, -2.761741521021761E+07,
2461274.500000000, A.D. 2026-Aug-22 00:00:00.0000, -4.950869551792769E+08, -2.888800957581917E+07, -2.517421417417298E+07,
2461281.500000000, A.D. 2026-Aug-29 00:00:00.0000, -4.958021859339263E+08, -3.735536089344367E+07, -2.272102649540994E+07,
$$EOE